[Satellite]
VERSION=1.1
NAME=FLOCK 2K-07
NICKNAME=FLOCK 2K-07
TLE1=1 42862U 17042AP  18020.29938925  .00008219  00000-0  24078-3 0  9998
TLE2=2 42862  96.9939 284.3621 0009268 293.9792  66.0481 15.35410200 28940
